$$SOE
2460721.500000000, A.D. 2025-Feb-15 00:00:00.0000, -8.537574560970537E+07, -3.977366556865569E+08, -1.482958266379148E+07,
2460728.500000000, A.D. 2025-Feb-22 00:00:00.0000, -7.492206685647574E+07, -3.966780251765054E+08, -1.361930276000887E+07,
2460735.500000000, A.D. 2025-Mar-01 00:00:00.0000, -6.441322295328172E+07, -3.953272415359539E+08, -1.239899319899091E+07,
2460742.500000000, A.D. 2025-Mar-08 00:00:00.0000, -5.385581209271370E+07, -3.936782927749020E+08, -1.116933367988601E+07,
2460749.500000000, A.D. 2025-Mar-15 00:00:00.0000, -4.325679757222783E+07, -3.917251220328732E+08, -9.931045270032793E+06,
2460756.500000000, A.D. 2025-Mar-22 00:00:00.0000, -3.262353138991253E+07, -3.894616374349003E+08, -8.684892737273723E+06,
2460763.500000000, A.D. 2025-Mar-29 00:00:00.0000, -2.196377742295995E+07, -3.868817259023557E+08, -7.431687321946561E+06,
2460770.500000000, A.D. 2025-Apr-05 00:00:00.0000, -1.128573384315042E+07, -3.839792679798683E+08, -6.172289722573906E+06,
2460777.500000000, A.D. 2025-Apr-12 00:00:00.0000, -5.980566594139503E+05, -3.807481537917871E+08, -4.907613109012246E+06,
2460784.500000000, A.D. 2025-Apr-19 00:00:00.0000, 1.009011548089328E+07, -3.771823012455634E+08, -3.638626214787036E+06,
2460791.500000000, A.D. 2025-Apr-26 00:00:00.0000, 2.076913558267868E+07, -3.732756769408957E+08, -2.366356544511795E+06,
2460798.500000000, A.D. 2025-May-03 00:00:00.0000, 3.142882190634723E+07, -3.690223200411785E+08, -1.091893696652055E+06,
2460805.500000000, A.D. 2025-May-10 00:00:00.0000, 4.205843105235047E+07, -3.644163693941818E+08, 1.836072086104006E+05,
2460812.500000000, A.D. 2025-May-17 00:00:00.0000, 5.264663074258579E+07, -3.594520942583522E+08, 1.458922006265566E+06,
2460819.500000000, A.D. 2025-May-24 00:00:00.0000, 6.318147269521798E+07, -3.541239290218248E+08, 2.732753869637534E+06,
2460826.500000000, A.D. 2025-May-31 00:00:00.0000, 7.365036628504740E+07, -3.484265119478195E+08, 4.003729614724800E+06,
2460833.500000000, A.D. 2025-Jun-07 00:00:00.0000, 8.404005292570731E+07, -3.423547270941424E+08, 5.270396094991550E+06,
2460840.500000000, A.D. 2025-Jun-14 00:00:00.0000, 9.433657922012854E+07, -3.359037504319710E+08, 6.531216890122488E+06,
2460847.500000000, A.D. 2025-Jun-21 00:00:00.0000, 1.045252705892362E+08, -3.290691037973210E+08, 7.784568959720805E+06,
2460854.500000000, A.D. 2025-Jun-28 00:00:00.0000, 1.145907090877904E+08, -3.218467152710972E+08, 9.028739180328816E+06,
2460861.500000000, A.D. 2025-Jul-05 00:00:00.0000, 1.245167145636430E+08, -3.142329841739409E+08, 1.026192115489322E+07,
2460868.500000000, A.D. 2025-Jul-12 00:00:00.0000, 1.342863287445477E+08, -3.062248517834911E+08, 1.148221242491317E+07,
2460875.500000000, A.D. 2025-Jul-19 00:00:00.0000, 1.438818033311473E+08, -2.978198785913227E+08, 1.268761212122770E+07,
2460882.500000000, A.D. 2025-Jul-26 00:00:00.0000, 1.532845933179579E+08, -2.890163283179494E+08, 1.387601914425555E+07,
2460889.500000000, A.D. 2025-Aug-02 00:00:00.0000, 1.624753567476716E+08, -2.798132587211545E+08, 1.504523099922182E+07,
2460896.500000000, A.D. 2025-Aug-09 00:00:00.0000, 1.714339621919342E+08, -2.702106191349024E+08, 1.619294342821719E+07,
2460903.500000000, A.D. 2025-Aug-16 00:00:00.0000, 1.801395054332082E+08, -2.602093545579592E+08, 1.731675098788048E+07,
2460910.500000000, A.D. 2025-Aug-23 00:00:00.0000, 1.885703371564156E+08, -2.498115158317385E+08, 1.841414872488713E+07,
2460917.500000000, A.D. 2025-Aug-30 00:00:00.0000, 1.967041035907198E+08, -2.390203745106971E+08, 1.948253517107625E+07,
2460924.500000000, A.D. 2025-Sep-06 00:00:00.0000, 2.045178003558994E+08, -2.278405404545759E+08, 2.051921707567216E+07,
2460931.500000000, A.D. 2025-Sep-13 00:00:00.0000, 2.119878395352124E+08, -2.162780833138986E+08, 2.152141603662095E+07,
2460938.500000000, A.D. 2025-Sep-20 00:00:00.0000, 2.190901349120985E+08, -2.043406578566364E+08, 2.248627680860025E+07,
2460945.500000000, A.D. 2025-Sep-27 00:00:00.0000, 2.258002080001565E+08, -1.920376279131515E+08, 2.341087765173423E+07,
2460952.500000000, A.D. 2025-Oct-04 00:00:00.0000, 2.320933142391383E+08, -1.793801858481365E+08, 2.429224314213303E+07,
2460959.500000000, A.D. 2025-Oct-11 00:00:00.0000, 2.379445900880299E+08, -1.663814654934409E+08, 2.512735956653605E+07,
2460966.500000000, A.D. 2025-Oct-18 00:00:00.0000, 2.433292220040057E+08, -1.530566453569520E+08, 2.591319297735505E+07,
2460973.500000000, A.D. 2025-Oct-25 00:00:00.0000, 2.482226376258779E+08, -1.394230382217662E+08, 2.664670996593877E+07,
2460980.500000000, A.D. 2025-Nov-01 00:00:00.0000, 2.526007187215472E+08, -1.255001628971048E+08, 2.732490115056879E+07,
2460987.500000000, A.D. 2025-Nov-08 00:00:00.0000, 2.564400346623001E+08, -1.113097936861298E+08, 2.794480728479169E+07,
2460994.500000000, A.D. 2025-Nov-15 00:00:00.0000, 2.597180943847279E+08, -9.687598306342652E+07, 2.850354777438821E+07,
2461001.500000000, A.D. 2025-Nov-22 00:00:00.0000, 2.624136140471607E+08, -8.222505285750711E+07, 2.899835127258087E+07,
2461008.500000000, A.D. 2025-Nov-29 00:00:00.0000, 2.645067959820984E+08, -6.738554863158523E+07, 2.942658802717929E+07,
2461015.500000000, A.D. 2025-Dec-06 00:00:00.0000, 2.659796113675737E+08, -5.238815381587686E+07, 2.978580361935490E+07,
2461022.500000000, A.D. 2025-Dec-13 00:00:00.0000, 2.668160807370986E+08, -3.726556423692994E+07, 3.007375309070234E+07,
2461029.500000000, A.D. 2025-Dec-20 00:00:00.0000, 2.670025486386312E+08, -2.205232041796523E+07, 3.028843441746379E+07,
2461036.500000000, A.D. 2025-Dec-27 00:00:00.0000, 2.665279435579562E+08, -6.784594845216556E+06, 3.042812074993061E+07,
2461043.500000000, A.D. 2026-Jan-03 00:00:00.0000, 2.653840135087753E+08, 8.500063792155795E+06, 3.049139055152482E+07,
2461050.500000000, A.D. 2026-Jan-10 00:00:00.0000, 2.635655292998601E+08, 2.376302557893977E+07, 3.047715460525674E+07,
2461057.500000000, A.D. 2026-Jan-17 00:00:00.0000, 2.610704480729079E+08, 3.896490857051794E+07, 3.038467892200525E+07,
2461064.500000000, A.D. 2026-Jan-24 00:00:00.0000, 2.579000304528975E+08, 5.406593562999599E+07, 3.021360269044290E+07,
2461071.500000000, A.D. 2026-Jan-31 00:00:00.0000, 2.540589059276389E+08, 6.902631080191341E+07, 2.996395054445932E+07,
2461078.500000000, A.D. 2026-Feb-07 00:00:00.0000, 2.495550828143423E+08, 8.380660589569505E+07, 2.963613859709481E+07,
2461085.500000000, A.D. 2026-Feb-14 00:00:00.0000, 2.443999013496233E+08, 9.836814724176002E+07, 2.923097389419736E+07,
2461092.500000000, A.D. 2026-Feb-21 00:00:00.0000, 2.386079307135376E+08, 1.126733929109247E+08, 2.874964721648338E+07,
2461099.500000000, A.D. 2026-Feb-28 00:00:00.0000, 2.321968114719502E+08, 1.266862915399030E+08, 2.819371958962884E+07,
2461106.500000000, A.D. 2026-Mar-07 00:00:00.0000, 2.251870460107462E+08, 1.403726116109447E+08, 2.756510295112415E+07,
2461113.500000000, A.D. 2026-Mar-14 00:00:00.0000, 2.176017461737008E+08, 1.537002308760467E+08, 2.686603516410232E+07,
2461120.500000000, A.D. 2026-Mar-21 00:00:00.0000, 2.094663476907661E+08, 1.666393824429823E+08, 2.609905025307601E+07,
2461127.500000000, A.D. 2026-Mar-28 00:00:00.0000, 2.008082981255121E+08, 1.791628540526651E+08, 2.526694506376586E+07,
2461134.500000000, A.D. 2026-Apr-04 00:00:00.0000, 1.916567269498966E+08, 1.912461370892769E+08, 2.437274334471357E+07,
2461141.500000000, A.D. 2026-Apr-11 00:00:00.0000, 1.820421072417838E+08, 2.028675244578241E+08, 2.341965825365199E+07,
2461148.500000000, A.D. 2026-Apr-18 00:00:00.0000, 1.719959179663015E+08, 2.140081586480543E+08, 2.241105430978744E+07,
2461155.500000000, A.D. 2026-Apr-25 00:00:00.0000, 1.615503148873406E+08, 2.246520329006645E+08, 2.135040974810770E+07,
2461162.500000000, A.D. 2026-May-02 00:00:00.0000, 1.507378170423092E+08, 2.347859496178441E+08, 2.024128011285612E+07,
2461169.500000000, A.D. 2026-May-09 00:00:00.0000, 1.395910145259786E+08, 2.443994410641785E+08, 1.908726377812544E+07,
2461176.500000000, A.D. 2026-May-16 00:00:00.0000, 1.281423022282156E+08, 2.534846582116862E+08, 1.789196993048321E+07,
2461183.500000000, A.D. 2026-May-23 00:00:00.0000, 1.164236425083905E+08, 2.620362347417994E+08, 1.665898950162733E+07,
2461190.500000000, A.D. 2026-May-30 00:00:00.0000, 1.044663563965609E+08, 2.700511324798709E+08, 1.539186953109045E+07,
2461197.500000000, A.D. 2026-Jun-06 00:00:00.0000, 9.230094352370559E+07, 2.775284706898923E+08, 1.409409085494538E+07,
2461204.500000000, A.D. 2026-Jun-13 00:00:00.0000, 7.995693402236748E+07, 2.844693447223301E+08, 1.276904882229869E+07,
2461211.500000000, A.D. 2026-Jun-20 00:00:00.0000, 6.746277070472771E+07, 2.908766416496294E+08, 1.142003724513866E+07,
2461218.500000000, A.D. 2026-Jun-27 00:00:00.0000, 5.484571801658982E+07, 2.967548566064705E+08, 1.005023555374482E+07,
2461225.500000000, A.D. 2026-Jul-04 00:00:00.0000, 4.213179554201318E+07, 3.021099124565449E+08, 8.662698883258626E+06,
2461232.500000000, A.D. 2026-Jul-11 00:00:00.0000, 2.934573382701102E+07, 3.069489853929261E+08, 7.260350807706058E+06,
2461239.500000000, A.D. 2026-Jul-18 00:00:00.0000, 1.651095000253528E+07, 3.112803386118671E+08, 5.845978442694142E+06,
2461246.500000000, A.D. 2026-Jul-25 00:00:00.0000, 3.649540602219304E+06, 3.151131656064643E+08, 4.422229633208126E+06,
2461253.500000000, A.D. 2026-Aug-01 00:00:00.0000, -9.217710935597574E+06, 3.184574440716248E+08, 2.991611938312918E+06,
2461260.500000000, A.D. 2026-Aug-08 00:00:00.0000, -2.207131429076399E+07, 3.213238009914090E+08, 1.556493120307490E+06,
2461267.500000000, A.D. 2026-Aug-15 00:00:00.0000, -3.489304164002427E+07, 3.237233896066895E+08, 1.191028832550198E+05,
2461274.500000000, A.D. 2026-Aug-22 00:00:00.0000, -4.766588919137944E+07, 3.256677794441602E+08, -1.318464203872263E+06,
2461281.500000000, A.D. 2026-Aug-29 00:00:00.0000, -6.037403497583333E+07, 3.271688577603581E+08, -2.754244714240164E+06,
2461288.500000000, A.D. 2026-Sep-05 00:00:00.0000, -7.300279235910055E+07, 3.282387390728694E+08, -4.186401917894393E+06,
$$EOE